ECHOSTAR 7              
1 27378U 02006A   21213.45396609  .00000001  00000-0  00000-0 0  9997
2 27378   0.0497 268.3973 0000849 205.0034 241.5009  1.00271852 32745
INTELSAT 904 (IS-904)   
1 27380U 02007A   21213.41371152 -.00000214  00000-0  00000-0 0  9990
2 27380   2.4435  89.3100 0003119  46.9609 293.3923  1.00271652 33909
TDRS 9                  
1 27389U 02011A   21213.42318302 -.00000290  00000-0  00000-0 0  9997
2 27389   8.3415  63.7125 0021669 292.7510  43.8719  1.00267804 72588
ASTRA 3A                
1 27400U 02015B   21212.51570801 -.00000207  00000-0  00000-0 0  9996
2 27400   6.7351  61.1933 0001337  83.8775 263.1130  1.00270399 70859
NSS-7                   
1 27414U 02019A   21213.41554347 -.00000160  00000-0  00000-0 0  9990
2 27414   5.1581  73.8366 0002347  63.2447 302.7474  1.00271960 70713
DIRECTV 5 (TEMPO 1)     
1 27426U 02023A   21213.39757286 -.00000055  00000-0  00000-0 0  9995
2 27426   0.3265  97.1920 0003249  38.5333 207.4871  1.00272068 70260
INTELSAT 905 (IS-905)   
1 27438U 02027A   21213.41467111 -.00000185  00000-0  00000-0 0  9994
2 27438   2.2651  90.1118 0002436  39.6476 305.2597  1.00272095 33500
GALAXY 3C (G-3C)        
1 27445U 02030A   21213.40062612 -.00000149  00000-0  00000-0 0  9992
2 27445   0.0264 307.4381 0001756  24.9120  27.0516  1.00270426 28642
EUTELSAT 5 WEST A       
1 27460U 02035A   21213.34629718 -.00000042  00000-0  00000-0 0  9995
2 27460   1.5341  92.8903 0004819  36.8512 300.0881  1.00271795 69752
METEOSAT-8 (MSG-1)      
1 27509U 02040B   21213.17479769  .00000133  00000-0  00000-0 0  9995
2 27509   7.4500  52.2693 0000098  40.9795 321.0329  1.00273414 69400
INTELSAT 906 (IS-906)   
1 27513U 02041A   21213.43238001  .00000015  00000-0  00000-0 0  9991
2 27513   1.2737  94.2864 0003334  45.8402  29.9222  1.00272371 69171
HISPASAT 30W-4          
1 27528U 02044A   21213.44932994  .00000117  00000-0  00000-0 0  9996
2 27528   2.0526  90.2335 0004813  38.6506 200.0911  1.00270082 25119
TDRS 10                 
1 27566U 02055A   21213.34333329  .00000087  00000-0  00000-0 0  9992
2 27566   7.6233  51.6631 0008516 340.2778 230.7265  1.00276672 68372
NSS-6                   
1 27603U 02057A   21213.50882841  .00000109  00000-0  00000-0 0  9997
2 27603   0.8100  95.4035 0004116  32.3740 196.1858  1.00273521 68188
NIMIQ 2                 
1 27632U 02062A   21213.10257661 -.00000231  00000-0  00000-0 0  9994
2 27632   5.2694  72.9359 0012087  27.3020 336.0886  1.00273819 26334
USA 167                 
1 27691U 03008A   21213.25535311  .00000052  00000-0  00000-0 0  9997
2 27691   7.4197  56.5789 0003499  33.5158 181.6621  1.00272992 15097
USA 169 (MILSTAR-2 4)   
1 27711U 03012A   21213.45743821 -.00000197  00000-0  00000-0 0  9995
2 27711   9.6498  42.2544 0002363  94.1533 130.6954  1.00272315 15090
GALAXY 12 (G-12)        
1 27715U 03013B   21213.43591003  .00000058  00000-0  00000-0 0  9996
2 27715   2.4784  88.8326 0001778  52.6086 196.7301  1.00273233 34234
ASIASAT 4               
1 27718U 03014A   21213.37132602  .00000154  00000-0  00000-0 0  9996
2 27718   0.1713 100.3366 0001751  37.8032 343.9241  1.00274396 27440
HELLAS-SAT 2            
1 27811U 03020A   21213.40053889 -.00000151  00000-0  00000-0 0  9998
2 27811   2.8958  87.9967 0004299  46.3770 224.8128  1.00271956 24981
THURAYA-2               
1 27825U 03026A   21213.08660325  .00000126  00000-0  00000+0 0  9992
2 27825   6.3492  33.9453 0004804  75.3575 275.7817  1.00273270 66488
OPTUS C1                
1 27831U 03028B   21213.61229876 -.00000150  00000-0  00000-0 0  9991
2 27831   2.4065  89.9704 0006075  43.7365 192.8339  1.00273805 35204
GALAXY 23 (G-23)        
1 27854U 03034A   21213.38150823  .00000014  00000-0  00000-0 0  9990
2 27854   0.0059  89.5775 0002945  43.4883 193.4888  1.00272983 65883
USA 170                 
1 27875U 03040A   21213.41109444 -.00000276  00000-0  00000-0 0  9998
2 27875   6.7150  61.9887 0004979  84.1326 269.5384  1.00267980 15109
GALAXY 13 (HORIZONS 1)  
1 27954U 03044A   21213.31368747  .00000049  00000-0  00000-0 0  9999
2 27954   0.0242  86.6931 0000678  56.3834 152.9627  1.00271577 28710
YAMAL 202               
1 28089U 03053A   21213.61229876 -.00000079  00000-0  00000-0 0  9995
2 28089   1.8399  91.3991 0007588  25.8586 217.0788  1.00271987 64821
UFO 11 (USA 174)        
1 28117U 03057A   21213.52479736 -.00000096  00000-0  00000-0 0  9992
2 28117   6.5533  37.8541 0005190  51.3089 124.7370  1.00271305 64599
USA 176 (DSP 22)        
1 28158U 04004A   21213.53070718 -.00000221  00000-0  00000-0 0  9998
2 28158   9.6789  37.0105 0001143 120.0557  71.7243  1.00272292 15072
ABS-4 (MOBISAT-1)       
1 28184U 04007A   21213.43168212  .00000041  00000-0  00000-0 0  9995
2 28184   1.5230  92.6632 0005415  40.6754  33.2902  1.00273338 34480
EUTELSAT 7A             
1 28187U 04008A   21213.44481670  .00000105  00000-0  00000-0 0  9997
2 28187   1.3143  90.7320 0004368  46.4472 193.9875  1.00271159 63499
AMC-11 (GE-11)          
1 28252U 04017A   21213.39347278  .00000070  00000-0  00000-0 0  9990
2 28252   0.0582 283.2301 0002578 209.2577 188.3649  1.00274068 63027
INTELSAT 10-02          
1 28358U 04022A   21213.41438170 -.00000009  00000-0  00000-0 0  9991
2 28358   0.0506 259.0821 0000902 241.1598 318.1667  1.00274396 62694
ANIK F2                 
1 28378U 04027A   21213.39739840 -.00000048  00000-0  00000-0 0  9996
2 28378   0.0149  77.6681 0001292 162.7947 101.7362  1.00271996 23403
AMC-15                  
1 28446U 04041A   21213.49031069 -.00000087  00000-0  00000-0 0  9990
2 28446   0.0216 347.9779 0002829 150.0995 243.6793  1.00272362 61465
AMC-16                  
1 28472U 04048A   21211.25354576 -.00000121  00000-0  00000-0 0  9998
2 28472   0.0135 253.4377 0001919  15.4294  43.7975  0.99683302 60810
NSS-10 (AMC-12)         
1 28526U 05003A   21213.41205404 -.00000251  00000-0  00000-0 0  9999
2 28526   1.9973  90.6962 0002834  38.4732 291.9391  1.00271389 35294
XTAR-EUR                
1 28542U 05005A   21213.05872126  .00000152  00000-0  00000-0 0  9999
2 28542   0.0174  78.2969 0002379  53.9542 227.7590  1.00270854 60336
XM-3 (RHYTHM)           
1 28626U 05008A   21213.18243766 -.00000204  00000-0  00000+0 0  9999
2 28626   0.0220  80.6737 0001014   7.3897 202.5258  1.00269185 60205
INMARSAT 4-F1           
1 28628U 05009A   21213.50396503 -.00000260  00000-0  00000+0 0  9998
2 28628   3.3929  31.5448 0002751 109.5777 134.1222  1.00273023 59816
DIRECTV 8               
1 28659U 05019A   21213.38030446  .00000003  00000-0  00000-0 0  9995
2 28659   0.0162 304.0297 0002683 187.1479 196.8789  1.00268139 59217
GALAXY 28 (G-28)        
1 28702U 05022A   21213.40184742 -.00000184  00000-0  00000-0 0  9991
2 28702   0.0131  52.2970 0000688  28.2475 285.3387  1.00275376 34128
EXPRESS-AM3             
1 28707U 05023A   21213.37688297  .00000133  00000-0  00000-0 0  9990
2 28707   2.7868  86.7708 0001047  75.5638 306.4931  1.00273529 58984
THAICOM 4               
1 28786U 05028A   21213.08035354 -.00000362  00000-0  00000-0 0  9995
2 28786   0.0180  77.2281 0002372  55.4154 325.6627  1.00271421 34407
GALAXY 14 (G-14)        
1 28790U 05030A   21213.24354779  .00000147  00000-0  00000-0 0  9996
2 28790   0.4615  95.1558 0002228  38.3068 285.8087  1.00515292 58443
ANIK F1R                
1 28868U 05036A   21213.43363316 -.00000072  00000-0  00000-0 0  9994
2 28868   0.0178 349.6568 0002298  98.5578 270.8320  1.00271589 28593
GALAXY 15 (G-15)        
1 28884U 05041A   21213.43759532  .00000081  00000-0  00000-0 0  9996
2 28884   0.0338 257.9953 0001760 242.3283 194.4552  1.00271736 57755
SYRACUSE 3A             
1 28885U 05041B   21213.36577162  .00000130  00000-0  00000+0 0  9990
2 28885   0.3247  97.5992 0003106  28.2003   3.0340  1.00273168 57870
INMARSAT 4-F2           
1 28899U 05044A   21213.43229278  .00000010  00000-0  00000-0 0  9996
2 28899   3.2677  34.1837 0002850 108.4513  27.1189  1.00272194 57664
TELKOM 2                
1 28902U 05046A   21213.40298149 -.00000066  00000-0  00000-0 0  9995
2 28902   0.1763  97.3081 0000879 108.7486 165.9723  0.99145368 57578
SPACEWAY 2              
1 28903U 05046B   21213.26091295  .00000104  00000-0  00000-0 0  9995
2 28903   1.1517  91.5484 0000354 141.1973  32.3593  1.00273545 33488
METEOSAT-9 (MSG-2)      
1 28912U 05049B   21213.27790744  .00000015  00000-0  00000-0 0  9995
2 28912   5.3058  68.2105 0000772  58.2000 287.0381  1.00274671 57175
EUTELSAT 174A           
1 28924U 05052A   21213.46508023  .00000011  00000-0  00000-0 0  9996
2 28924   0.0430  32.4045 0006179 100.9612 158.3321  1.00273296 34475
ECHOSTAR 10             
1 28935U 06003A   21213.39757286 -.00000054  00000-0  00000-0 0  9992
2 28935   0.0393 265.3532 0001349 239.4049 198.3679  1.00271847 56619
SPAINSAT                
1 28945U 06007A   21213.41353705 -.00000215  00000-0  00000+0 0  9996
2 28945   0.0555 250.3886 0004229 276.0956 262.6323  1.00271967 56377
EUTELSAT HOTBIRD 13E    
1 28946U 06007B   21213.24910473  .00000088  00000-0  00000-0 0  9997
2 28946   0.0546 139.0729 0006016  13.1115 260.5303  1.00272074 56443
JCSAT-5A                
1 29045U 06010A   21213.60118992 -.00000326  00000-0  00000-0 0  9994
2 29045   0.0061 242.2328 0001704 255.4427 161.2243  1.00271895 55904
ASTRA 1KR               
1 29055U 06012A   21213.37688299  .00000121  00000-0  00000-0 0  9995
2 29055   0.0608 265.3949 0003355 271.4631 288.1965  1.00271045 27878
EWS-G1 (GOES 13)        
1 29155U 06018A   21213.57688128  .00000040  00000-0  00000-0 0  9995
2 29155   0.0524 198.2191 0005610 354.0010  27.1149  1.00274111 25526
EUTELSAT 113 WEST A     
1 29162U 06020A   21213.39704944 -.00000036  00000-0  00000-0 0  9997
2 29162   0.0236 121.0033 0003071  13.5138 205.6329  1.00272206 55620
